$$SOE
2459580.500000000, A.D. 2022-Jan-01 00:00:00.0000, 1.667880363518318E+08, 5.239514824589709E+08, -1.693501835020757E+07,
2459587.500000000, A.D. 2022-Jan-08 00:00:00.0000, 1.587051710057517E+08, 5.267702641659316E+08, -1.656148883461389E+07,
2459594.500000000, A.D. 2022-Jan-15 00:00:00.0000, 1.505760526639636E+08, 5.294356600436532E+08, -1.618313617408478E+07,
2459601.500000000, A.D. 2022-Jan-22 00:00:00.0000, 1.424031148731462E+08, 5.319471132434618E+08, -1.580007765028694E+07,
2459608.500000000, A.D. 2022-Jan-29 00:00:00.0000, 1.341887915038340E+08, 5.343040930516541E+08, -1.541243079913124E+07,
2459615.500000000, A.D. 2022-Feb-05 00:00:00.0000, 1.259355148816973E+08, 5.365060939603482E+08, -1.502031327638689E+07,
2459622.500000000, A.D. 2022-Feb-12 00:00:00.0000, 1.176457160978715E+08, 5.385526336953889E+08, -1.462384300902373E+07,
2459629.500000000, A.D. 2022-Feb-19 00:00:00.0000, 1.093218261741563E+08, 5.404432525705336E+08, -1.422313831740010E+07,
2459636.500000000, A.D. 2022-Feb-26 00:00:00.0000, 1.009662767715868E+08, 5.421775134439346E+08, -1.381831794723913E+07,
2459643.500000000, A.D. 2022-Mar-05 00:00:00.0000, 9.258150060101068E+07, 5.437550016593931E+08, -1.340950107658821E+07,
2459650.500000000, A.D. 2022-Mar-12 00:00:00.0000, 8.416993175691038E+07, 5.451753249064702E+08, -1.299680732371360E+07,
2459657.500000000, A.D. 2022-Mar-19 00:00:00.0000, 7.573400604503444E+07, 5.464381130274947E+08, -1.258035676042426E+07,
2459664.500000000, A.D. 2022-Mar-26 00:00:00.0000, 6.727616132579108E+07, 5.475430177656115E+08, -1.216026993362483E+07,
2459671.500000000, A.D. 2022-Apr-02 00:00:00.0000, 5.879883794075245E+07, 5.484897123981876E+08, -1.173666790611625E+07,
2459678.500000000, A.D. 2022-Apr-09 00:00:00.0000, 5.030447949382867E+07, 5.492778912606889E+08, -1.130967234139463E+07,
2459685.500000000, A.D. 2022-Apr-16 00:00:00.0000, 4.179553434380359E+07, 5.499072698157319E+08, -1.087940561194488E+07,
2459692.500000000, A.D. 2022-Apr-23 00:00:00.0000, 3.327445653943021E+07, 5.503775863522699E+08, -1.044599072623280E+07,
2459699.500000000, A.D. 2022-Apr-30 00:00:00.0000, 2.474370432708067E+07, 5.506886030689083E+08, -1.000955108639306E+07,
2459706.500000000, A.D. 2022-May-07 00:00:00.0000, 1.620573929242942E+07, 5.508401045671493E+08, -9.570210518696666E+06,
2459713.500000000, A.D. 2022-May-14 00:00:00.0000, 7.663027524764614E+06, 5.508318967942575E+08, -9.128093456036091E+06,
2459720.500000000, A.D. 2022-May-21 00:00:00.0000, -8.819592268487400E+05, 5.506638071952095E+08, -8.683325024223506E+06,
2459727.500000000, A.D. 2022-May-28 00:00:00.0000, -9.426742884501746E+06, 5.503356851147494E+08, -8.236031066491723E+06,
2459734.500000000, A.D. 2022-Jun-04 00:00:00.0000, -1.796883858282542E+07, 5.498474021367931E+08, -7.786338157106638E+06,
2459741.500000000, A.D. 2022-Jun-11 00:00:00.0000, -2.650575427658975E+07, 5.491988523637252E+08, -7.334373617115498E+06,
2459748.500000000, A.D. 2022-Jun-18 00:00:00.0000, -3.503499037622654E+07, 5.483899526493531E+08, -6.880265534615397E+06,
2459755.500000000, A.D. 2022-Jun-25 00:00:00.0000, -4.355403938224860E+07, 5.474206427528890E+08, -6.424142794854254E+06,
2459762.500000000, A.D. 2022-Jul-02 00:00:00.0000, -5.206038538499697E+07, 5.462908853487964E+08, -5.966135137704134E+06,
2459769.500000000, A.D. 2022-Jul-09 00:00:00.0000, -6.055150304003854E+07, 5.450006660702015E+08, -5.506373263692856E+06,
2459776.500000000, A.D. 2022-Jul-16 00:00:00.0000, -6.902485607500224E+07, 5.435499946698471E+08, -5.044988894914031E+06,
2459783.500000000, A.D. 2022-Jul-23 00:00:00.0000, -7.747789752619553E+07, 5.419389073774785E+08, -4.582114582709849E+06,
2459790.500000000, A.D. 2022-Jul-30 00:00:00.0000, -8.590807162064570E+07, 5.401674670992150E+08, -4.117883543648094E+06,
2459797.500000000, A.D. 2022-Aug-06 00:00:00.0000, -9.431281370591746E+07, 5.382357621068262E+08, -3.652429800560415E+06,
2459804.500000000, A.D. 2022-Aug-13 00:00:00.0000, -1.026895490514353E+08, 5.361439059728442E+08, -3.185888327872723E+06,
2459811.500000000, A.D. 2022-Aug-20 00:00:00.0000, -1.110356920902503E+08, 5.338920382483690E+08, -2.718395098216742E+06,
2459818.500000000, A.D. 2022-Aug-27 00:00:00.0000, -1.193486460333275E+08, 5.314803251561919E+08, -2.250087095642030E+06,
2459825.500000000, A.D. 2022-Sep-03 00:00:00.0000, -1.276258026094240E+08, 5.289089601881508E+08, -1.781102326919824E+06,
2459832.500000000, A.D. 2022-Sep-10 00:00:00.0000, -1.358645418418708E+08, 5.261781646308058E+08, -1.311579837040126E+06,
2459839.500000000, A.D. 2022-Sep-17 00:00:00.0000, -1.440622318342700E+08, 5.232881880186237E+08, -8.416597316493392E+05,
2459846.500000000, A.D. 2022-Sep-24 00:00:00.0000, -1.522162285057858E+08, 5.202393084651247E+08, -3.714832161449194E+05,
2459853.500000000, A.D. 2022-Oct-01 00:00:00.0000, -1.603238750368222E+08, 5.170318328509877E+08, 9.880732462733984E+04,
2459860.500000000, A.D. 2022-Oct-08 00:00:00.0000, -1.683825006185194E+08, 5.136660973922867E+08, 5.690682112021744E+05,
2459867.500000000, A.D. 2022-Oct-15 00:00:00.0000, -1.763894194387046E+08, 5.101424697893638E+08, 1.039154502053261E+06,
2459874.500000000, A.D. 2022-Oct-22 00:00:00.0000, -1.843419320859584E+08, 5.064613512734475E+08, 1.508920236069977E+06,
2459881.500000000, A.D. 2022-Oct-29 00:00:00.0000, -1.922373268740945E+08, 5.026231759565952E+08, 1.978218443758488E+06,
2459888.500000000, A.D. 2022-Nov-05 00:00:00.0000, -2.000728789896796E+08, 4.986284102259260E+08, 2.446900958479315E+06,
2459895.500000000, A.D. 2022-Nov-12 00:00:00.0000, -2.078458494290606E+08, 4.944775534510403E+08, 2.914818311229378E+06,
2459902.500000000, A.D. 2022-Nov-19 00:00:00.0000, -2.155534844450413E+08, 4.901711390514264E+08, 3.381819696794719E+06,
2459909.500000000, A.D. 2022-Nov-26 00:00:00.0000, -2.231930152420314E+08, 4.857097355268528E+08, 3.847752954681844E+06,
2459916.500000000, A.D. 2022-Dec-03 00:00:00.0000, -2.307616577549998E+08, 4.810939474396992E+08, 4.312464548637599E+06,
2459923.500000000, A.D. 2022-Dec-10 00:00:00.0000, -2.382566124681634E+08, 4.763244163685734E+08, 4.775799542131394E+06,
2459930.500000000, A.D. 2022-Dec-17 00:00:00.0000, -2.456750642501755E+08, 4.714018218089520E+08, 5.237601565551281E+06,
2459937.500000000, A.D. 2022-Dec-24 00:00:00.0000, -2.530141820979190E+08, 4.663268819557111E+08, 5.697712759799659E+06,
2459944.500000000, A.D. 2022-Dec-31 00:00:00.0000, -2.602711184328255E+08, 4.611003544756868E+08, 6.155973672405720E+06,
2459951.500000000, A.D. 2023-Jan-07 00:00:00.0000, -2.674430078288454E+08, 4.557230382333530E+08, 6.612223173683316E+06,
2459958.500000000, A.D. 2023-Jan-14 00:00:00.0000, -2.745269671410868E+08, 4.501957764677453E+08, 7.066298614054710E+06,
2459965.500000000, A.D. 2023-Jan-21 00:00:00.0000, -2.815200976807480E+08, 4.445194582489539E+08, 7.518036022517025E+06,
2459972.500000000, A.D. 2023-Jan-28 00:00:00.0000, -2.884194857692251E+08, 4.386950180174739E+08, 7.967269994100869E+06,
2459979.500000000, A.D. 2023-Feb-04 00:00:00.0000, -2.952222018829882E+08, 4.327234362337843E+08, 8.413833533081889E+06,
2459986.500000000, A.D. 2023-Feb-11 00:00:00.0000, -3.019253001874332E+08, 4.266057409458689E+08, 8.857558000902295E+06,
2459993.500000000, A.D. 2023-Feb-18 00:00:00.0000, -3.085258185252302E+08, 4.203430094522976E+08, 9.298273107524604E+06,
2460000.500000000, A.D. 2023-Feb-25 00:00:00.0000, -3.150207785989133E+08, 4.139363698995442E+08, 9.735806909168929E+06,
2460007.500000000, A.D. 2023-Mar-04 00:00:00.0000, -3.214071862483731E+08, 4.073870028330619E+08, 1.016998580490714E+07,
2460014.500000000, A.D. 2023-Mar-11 00:00:00.0000, -3.276820317975763E+08, 4.006961427035491E+08, 1.060063452987024E+07,
2460021.500000000, A.D. 2023-Mar-18 00:00:00.0000, -3.338422904263846E+08, 3.938650792798982E+08, 1.102757613707885E+07,
2460028.500000000, A.D. 2023-Mar-25 00:00:00.0000, -3.398849223670740E+08, 3.868951589224792E+08, 1.145063194577876E+07,
2460035.500000000, A.D. 2023-Apr-01 00:00:00.0000, -3.458068725039851E+08, 3.797877861107961E+08, 1.186962144988531E+07,
2460042.500000000, A.D. 2023-Apr-08 00:00:00.0000, -3.516050699949970E+08, 3.725444264510937E+08, 1.228436234344748E+07,
2460049.500000000, A.D. 2023-Apr-15 00:00:00.0000, -3.572764302551832E+08, 3.651666100588838E+08, 1.269467078737909E+07,
2460056.500000000, A.D. 2023-Apr-22 00:00:00.0000, -3.628178574950634E+08, 3.576559322646363E+08, 1.310036150238858E+07,
2460063.500000000, A.D. 2023-Apr-29 00:00:00.0000, -3.682262450799860E+08, 3.500140538928236E+08, 1.350124762168680E+07,
2460070.500000000, A.D. 2023-May-06 00:00:00.0000, -3.734984754753886E+08, 3.422427028932050E+08, 1.389714061067902E+07,
2460077.500000000, A.D. 2023-May-13 00:00:00.0000, -3.786314207600313E+08, 3.343436764301306E+08, 1.428785027029561E+07,
2460084.500000000, A.D. 2023-May-20 00:00:00.0000, -3.836219434781678E+08, 3.263188429381773E+08, 1.467318476242268E+07,
2460091.500000000, A.D. 2023-May-27 00:00:00.0000, -3.884668976424507E+08, 3.181701441141729E+08, 1.505295063731445E+07,
2460098.500000000, A.D. 2023-Jun-03 00:00:00.0000, -3.931631298351514E+08, 3.098995968711915E+08, 1.542695285982183E+07,
2460105.500000000, A.D. 2023-Jun-10 00:00:00.0000, -3.977074803887667E+08, 3.015092952400454E+08, 1.579499483111194E+07,
2460112.500000000, A.D. 2023-Jun-17 00:00:00.0000, -4.020967845616239E+08, 2.930014121568384E+08, 1.615687839280340E+07,
2460119.500000000, A.D. 2023-Jun-24 00:00:00.0000, -4.063278733931292E+08, 2.843782011901692E+08, 1.651240378875585E+07,
2460126.500000000, A.D. 2023-Jul-01 00:00:00.0000, -4.103975739904382E+08, 2.756419990333663E+08, 1.686136962906772E+07,
2460133.500000000, A.D. 2023-Jul-08 00:00:00.0000, -4.143027109263958E+08, 2.667952295808482E+08, 1.720357307713743E+07,
2460140.500000000, A.D. 2023-Jul-15 00:00:00.0000, -4.180401100319641E+08, 2.578404067566166E+08, 1.753881014582036E+07,
2460147.500000000, A.D. 2023-Jul-22 00:00:00.0000, -4.216066010663158E+08, 2.487801350576932E+08, 1.786687569545683E+07,
$$EOE